[{"OBJECT_NAME":"STARLINK-33759","OBJECT_ID":"2025-101P","EPOCH":"2026-03-09T03:20:32.528832","MEAN_MOTION":15.275816,"ECCENTRICITY":0.00019282,"INCLINATION":43.003,"RA_OF_ASC_NODE":0.8461,"ARG_OF_PERICENTER":252.9816,"MEAN_ANOMALY":107.0825,"EPHEMERIS_TYPE":0,"CLASSIFICATION_TYPE":"U","NORAD_CAT_ID":64007,"ELEMENT_SET_NO":999,"REV_AT_EPOCH":4697,"BSTAR":0.001419561,"MEAN_MOTION_DOT":0.0003901,"MEAN_MOTION_DDOT":0},{"OBJECT_NAME":"OBJECT J","OBJECT_ID":"2025-155J","EPOCH":"2026-03-09T22:09:22.347648","MEAN_MOTION":15.2758258,"ECCENTRICITY":0.00088188,"INCLINATION":97.4475,"RA_OF_ASC_NODE":37.3123,"ARG_OF_PERICENTER":150.071,"MEAN_ANOMALY":210.1035,"EPHEMERIS_TYPE":0,"CLASSIFICATION_TYPE":"U","NORAD_CAT_ID":64884,"ELEMENT_SET_NO":999,"REV_AT_EPOCH":6559,"BSTAR":0.00051444498,"MEAN_MOTION_DOT":0.00013827,"MEAN_MOTION_DDOT":0}]
